CUTE-1 (CO-55)          
1 27844U 03031E   26196.48745324  .00000133  00000+0  76487-4 0  9995
2 27844  98.6744 204.6909 0010836 101.9513 258.2882 14.24351670195703
CUBESAT XI-IV (CO-57)   
1 27848U 03031J   26196.49013580  .00000112  00000+0  68039-4 0  9993
2 27848  98.6774 204.3834 0010557 118.6468 241.5773 14.23634657195407
CUBESAT XI-V            
1 28895U 05043F   26196.39580506  .00000649  00000+0  10993-3 0  9997
2 28895  98.3015 352.6157 0015254 114.6608 245.6189 14.72702525105907
CUTE-1.7+APD II (CO-65) 
1 32785U 08021C   26196.88379784  .00002631  00000+0  16739-3 0  9994
2 32785  97.8294 178.9074 0006956 296.6909  63.3606 15.09705057989525
CANX-2                  
1 32790U 08021H   26196.46510344  .00001515  00000+0  10896-3 0  9991
2 32790  97.8658 176.7990 0008667 317.1873  42.8677 15.05807237989066
SEEDS II (CO-66)        
1 32791U 08021J   26196.52520748  .00011174  00000+0  34561-3 0  9995
2 32791  97.7522 195.7974 0003105 155.6560 204.4829 15.33674625991634
SWISSCUBE               
1 35932U 09051B   26195.74040393  .00000468  00000+0  10206-3 0  9999
2 35932  98.4008 104.1063 0007823 120.2894 239.9082 14.62530263893188
BEESAT-1                
1 35933U 09051C   26196.31185738  .00000377  00000+0  85523-4 0  9991
2 35933  98.3935 104.2639 0006132 129.5089 230.6654 14.61761931893299
ITUPSAT1                
1 35935U 09051E   26196.19038705  .00000349  00000+0  82054-4 0  9995
2 35935  98.4018 103.3025 0008086 143.1681 217.0076 14.60478742892822
TISAT 1                 
1 36799U 10035E   26196.78600925  .00012652  00000+0  40253-3 0  9996
2 36799  98.0716 145.8980 0004555 118.9066 241.2631 15.32747095872089
STRAND-1                
1 39090U 13009E   26196.74002714  .00000123  00000+0  55624-4 0  9994
2 39090  98.3935  16.2735 0009437 139.6200 220.5689 14.37179078701162
BRITE-AUSTRIA           
1 39091U 13009F   26196.76529549  .00000075  00000+0  39948-4 0  9994
2 39091  98.4008  15.4957 0010793 149.0396 211.1429 14.36552666701154
NEE-01 PEGASO           
1 39151U 13018B   26196.33340642  .00001174  00000+0  11643-3 0  9991
2 39151  98.1256 341.4213 0013693  73.9409 286.3317 14.93789204714902
POPACS 2                
1 39269U 13055E   26196.75443690  .00014540 -92046-6  23703-3 0  9995
2 39269  80.9916 111.4814 0414930 102.0893 262.7124 14.92031396667470
POPACS 3                
1 39270U 13055F   26196.42360878  .00008298  00000+0  19704-3 0  9997
2 39270  80.9990 198.5566 0548749 343.9708  14.4695 14.56665007642662
ZACUBE-1 (TSHEPISOSAT)  
1 39417U 13066B   26196.86778602  .00001228  00000+0  98374-4 0  9995
2 39417  97.8008 159.3459 0044051 153.0544 207.2981 15.01330535685037
WNISAT-1                
1 39423U 13066H   26196.69054325  .00000611  00000+0  11895-3 0  9999
2 39423  97.7236 343.8287 0163901 141.7598 219.5363 14.58120743670880
TRITON-1                
1 39427U 13066M   26196.79310207  .00001392  00000+0  17087-3 0  9994
2 39427  97.8229 105.9471 0090639 140.1685 220.6228 14.81798424678329
GOMX-1                  
1 39430U 13066Q   26196.78402047  .00000701  00000+0  11195-3 0  9998
2 39430  97.6466  35.4421 0128200 346.3187  13.4557 14.69543634674112
CUBEBUG-2 (LO-74)       
1 39440U 13066AA  26196.86496091  .00002083  00000+0  19551-3 0  9999
2 39440  97.8915 145.9709 0055631 293.0759  66.4601 14.93969667681278
NEE-02 KRYSAOR          
1 39441U 13066AB  26196.81366307  .00001150  00000+0  13087-3 0  9993
2 39441  97.8897 135.8273 0065349 337.2484  22.5838 14.86740707680453
FUNCUBE-1 (AO-73)       
1 39444U 13066AE  26196.88912522  .00003677  00000+0  22787-3 0  9992
2 39444  97.8290 168.9436 0037990 105.4335 255.1095 15.09822727683992
UWE-3                   
1 39446U 13066AG  26196.82148462  .00001951  00000+0  17026-3 0  9995
2 39446  97.8715 153.0945 0047549 222.4036 137.3508 14.97201399681861
BRITE-CA1 (TORONTO)     
1 40020U 14033L   26196.77804588  .00000530  00000+0  87115-4 0  9991
2 40020  97.9773 325.1846 0078477 184.3909 175.6620 14.72723306646420
DUCHIFAT-1              
1 40021U 14033M   26196.10651526  .00095423  00000+0  75655-3 0  9991
2 40021  98.0418 259.3300 0002759 247.0602 113.0368 15.70998071660129
NANOSATC-BR1            
1 40024U 14033Q   26196.03158592  .00010322  00000+0  33335-3 0  9995
2 40024  98.0712 230.9033 0005301  95.9115 264.2729 15.32325644658240
QB50P1                  
1 40025U 14033R   26196.55167112  .00004446  00000+0  21798-3 0  9991
2 40025  98.0962 209.6951 0010355 123.5579 236.6643 15.18670090657336
QB50P2                  
1 40032U 14033Y   26196.23021955  .00003641  00000+0  19604-3 0  9997
2 40032  98.0760 194.8648 0009323  83.4516 276.7776 15.15506307656917
PERSEUS-M2              
1 40037U 14033AD  26196.83278032  .00001046  00000+0  99683-4 0  9991
2 40037  97.9982 147.9604 0010873 196.7835 163.3027 14.95593484655065
PERSEUS-M1              
1 40039U 14033AF  26196.40204849  .00001162  00000+0  10973-3 0  9994
2 40039  97.9654 141.0000 0010919 195.4743 164.6145 14.95716338654859
